CCSDS_OMM_VERS = 2.0
CREATION_DATE  = 
ORIGINATOR     = 

OBJECT_NAME    = STARLINK-35475
OBJECT_ID      = 2025-223M
CENTER_NAME    = EARTH
REF_FRAME      = TEME
TIME_SYSTEM    = UTC
MEAN_ELEMENT_THEORY = SGP/SGP4

EPOCH          = 2025-10-27T06:36:48.313152
MEAN_MOTION    = 15.49329508
ECCENTRICITY   = .00016957
INCLINATION    = 53.1592
RA_OF_ASC_NODE = 196.3977
ARG_OF_PERICENTER = 62.7176
MEAN_ANOMALY   = 297.4006

EPHEMERIS_TYPE = 0
CLASSIFICATION_TYPE = U
NORAD_CAT_ID   = 65865
ELEMENT_SET_NO = 999
REV_AT_EPOCH   = 374
BSTAR          = .12984354E-2
MEAN_MOTION_DOT = .72492E-3
MEAN_MOTION_DDOT = 0

CCSDS_OMM_VERS = 2.0
CREATION_DATE  = 
ORIGINATOR     = 

OBJECT_NAME    = STARLINK-35312
OBJECT_ID      = 2025-223N
CENTER_NAME    = EARTH
REF_FRAME      = TEME
TIME_SYSTEM    = UTC
MEAN_ELEMENT_THEORY = SGP/SGP4

EPOCH          = 2025-10-27T06:36:18.017856
MEAN_MOTION    = 15.49365973
ECCENTRICITY   = .00024988
INCLINATION    = 53.1588
RA_OF_ASC_NODE = 196.3957
ARG_OF_PERICENTER = 128.3591
MEAN_ANOMALY   = 231.7643

EPHEMERIS_TYPE = 0
CLASSIFICATION_TYPE = U
NORAD_CAT_ID   = 65866
ELEMENT_SET_NO = 999
REV_AT_EPOCH   = 374
BSTAR          = .12354299E-2
MEAN_MOTION_DOT = .69013E-3
MEAN_MOTION_DDOT = 0

CCSDS_OMM_VERS = 2.0
CREATION_DATE  = 
ORIGINATOR     = 

OBJECT_NAME    = STARLINK-35456
OBJECT_ID      = 2025-223P
CENTER_NAME    = EARTH
REF_FRAME      = TEME
TIME_SYSTEM    = UTC
MEAN_ELEMENT_THEORY = SGP/SGP4

EPOCH          = 2025-10-27T06:35:48.913152
MEAN_MOTION    = 15.49330307
ECCENTRICITY   = .00015439
INCLINATION    = 53.1588
RA_OF_ASC_NODE = 196.3931
ARG_OF_PERICENTER = 75.2007
MEAN_ANOMALY   = 284.9173

EPHEMERIS_TYPE = 0
CLASSIFICATION_TYPE = U
NORAD_CAT_ID   = 65867
ELEMENT_SET_NO = 999
REV_AT_EPOCH   = 374
BSTAR          = .13052428E-2
MEAN_MOTION_DOT = .72879E-3
MEAN_MOTION_DDOT = 0

CCSDS_OMM_VERS = 2.0
CREATION_DATE  = 
ORIGINATOR     = 

OBJECT_NAME    = STARLINK-35450
OBJECT_ID      = 2025-223Q
CENTER_NAME    = EARTH
REF_FRAME      = TEME
TIME_SYSTEM    = UTC
MEAN_ELEMENT_THEORY = SGP/SGP4

EPOCH          = 2025-10-27T06:00:02.000160
MEAN_MOTION    = 15.39526524
ECCENTRICITY   = .0001454
INCLINATION    = 53.1583
RA_OF_ASC_NODE = 196.5867
ARG_OF_PERICENTER = 61.3990
MEAN_ANOMALY   = 123.5356

EPHEMERIS_TYPE = 0
CLASSIFICATION_TYPE = U
NORAD_CAT_ID   = 65868
ELEMENT_SET_NO = 999
REV_AT_EPOCH   = 501
BSTAR          = .17617438E-2
MEAN_MOTION_DOT = .70506E-3
MEAN_MOTION_DDOT = 0

CCSDS_OMM_VERS = 2.0
CREATION_DATE  = 
ORIGINATOR     = 

OBJECT_NAME    = STARLINK-35441
OBJECT_ID      = 2025-223R
CENTER_NAME    = EARTH
REF_FRAME      = TEME
TIME_SYSTEM    = UTC
MEAN_ELEMENT_THEORY = SGP/SGP4

EPOCH          = 2025-10-27T06:00:02.000160
MEAN_MOTION    = 15.39595898
ECCENTRICITY   = .00011242
INCLINATION    = 53.1587
RA_OF_ASC_NODE = 196.6362
ARG_OF_PERICENTER = 86.8723
MEAN_ANOMALY   = 72.1627

EPHEMERIS_TYPE = 0
CLASSIFICATION_TYPE = U
NORAD_CAT_ID   = 65869
ELEMENT_SET_NO = 999
REV_AT_EPOCH   = 501
BSTAR          = .1598221E-2
MEAN_MOTION_DOT = .64015E-3
MEAN_MOTION_DDOT = 0

CCSDS_OMM_VERS = 2.0
CREATION_DATE  = 
ORIGINATOR     = 

OBJECT_NAME    = STARLINK-35433
OBJECT_ID      = 2025-223S
CENTER_NAME    = EARTH
REF_FRAME      = TEME
TIME_SYSTEM    = UTC
MEAN_ELEMENT_THEORY = SGP/SGP4

EPOCH          = 2025-10-27T06:00:02.000160
MEAN_MOTION    = 15.45671243
ECCENTRICITY   = .00013289
INCLINATION    = 53.1583
RA_OF_ASC_NODE = 196.5114
ARG_OF_PERICENTER = 84.1587
MEAN_ANOMALY   = 137.7351

EPHEMERIS_TYPE = 0
CLASSIFICATION_TYPE = U
NORAD_CAT_ID   = 65870
ELEMENT_SET_NO = 999
REV_AT_EPOCH   = 501
BSTAR          = -.469012E-1
MEAN_MOTION_DOT = -.2045508E-1
MEAN_MOTION_DDOT = 0

CCSDS_OMM_VERS = 2.0
CREATION_DATE  = 
ORIGINATOR     = 

OBJECT_NAME    = STARLINK-35465
OBJECT_ID      = 2025-223T
CENTER_NAME    = EARTH
REF_FRAME      = TEME
TIME_SYSTEM    = UTC
MEAN_ELEMENT_THEORY = SGP/SGP4

EPOCH          = 2025-10-27T06:00:02.000160
MEAN_MOTION    = 15.42337270
ECCENTRICITY   = .0001323
INCLINATION    = 53.1586
RA_OF_ASC_NODE = 196.5387
ARG_OF_PERICENTER = 104.6813
MEAN_ANOMALY   = 103.5315

EPHEMERIS_TYPE = 0
CLASSIFICATION_TYPE = U
NORAD_CAT_ID   = 65871
ELEMENT_SET_NO = 999
REV_AT_EPOCH   = 501
BSTAR          = -.61239532E-1
MEAN_MOTION_DOT = -.2385452E-1
MEAN_MOTION_DDOT = 0

CCSDS_OMM_VERS = 2.0
CREATION_DATE  = 
ORIGINATOR     = 

OBJECT_NAME    = STARLINK-34108
OBJECT_ID      = 2025-223U
CENTER_NAME    = EARTH
REF_FRAME      = TEME
TIME_SYSTEM    = UTC
MEAN_ELEMENT_THEORY = SGP/SGP4

EPOCH          = 2025-10-27T04:59:56.998176
MEAN_MOTION    = 15.49347116
ECCENTRICITY   = .00011472
INCLINATION    = 53.1592
RA_OF_ASC_NODE = 196.6877
ARG_OF_PERICENTER = 98.4442
MEAN_ANOMALY   = 261.6697

EPHEMERIS_TYPE = 0
CLASSIFICATION_TYPE = U
NORAD_CAT_ID   = 65872
ELEMENT_SET_NO = 999
REV_AT_EPOCH   = 373
BSTAR          = .11927803E-2
MEAN_MOTION_DOT = .66546E-3
MEAN_MOTION_DDOT = 0

CCSDS_OMM_VERS = 2.0
CREATION_DATE  = 
ORIGINATOR     = 

OBJECT_NAME    = STARLINK-35423
OBJECT_ID      = 2025-223V
CENTER_NAME    = EARTH
REF_FRAME      = TEME
TIME_SYSTEM    = UTC
MEAN_ELEMENT_THEORY = SGP/SGP4

EPOCH          = 2025-10-27T04:59:27.458016
MEAN_MOTION    = 15.49335060
ECCENTRICITY   = .00011731
INCLINATION    = 53.1594
RA_OF_ASC_NODE = 196.6849
ARG_OF_PERICENTER = 88.2173
MEAN_ANOMALY   = 271.8971

EPHEMERIS_TYPE = 0
CLASSIFICATION_TYPE = U
NORAD_CAT_ID   = 65873
ELEMENT_SET_NO = 999
REV_AT_EPOCH   = 373
BSTAR          = .93971354E-3
MEAN_MOTION_DOT = .52213E-3
MEAN_MOTION_DDOT = 0

CCSDS_OMM_VERS = 2.0
CREATION_DATE  = 
ORIGINATOR     = 

OBJECT_NAME    = STARLINK-35425
OBJECT_ID      = 2025-223W
CENTER_NAME    = EARTH
REF_FRAME      = TEME
TIME_SYSTEM    = UTC
MEAN_ELEMENT_THEORY = SGP/SGP4

EPOCH          = 2025-10-27T05:00:31.635072
MEAN_MOTION    = 15.48979520
ECCENTRICITY   = .00030202
INCLINATION    = 53.1593
RA_OF_ASC_NODE = 196.6901
ARG_OF_PERICENTER = 56.8492
MEAN_ANOMALY   = 303.2806

EPHEMERIS_TYPE = 0
CLASSIFICATION_TYPE = U
NORAD_CAT_ID   = 65874
ELEMENT_SET_NO = 999
REV_AT_EPOCH   = 373
BSTAR          = -.28810099E-2
MEAN_MOTION_DOT = -.155754E-2
MEAN_MOTION_DDOT = 0

CCSDS_OMM_VERS = 2.0
CREATION_DATE  = 
ORIGINATOR     = 

OBJECT_NAME    = STARLINK-34688
OBJECT_ID      = 2025-223X
CENTER_NAME    = EARTH
REF_FRAME      = TEME
TIME_SYSTEM    = UTC
MEAN_ELEMENT_THEORY = SGP/SGP4

EPOCH          = 2025-10-27T06:31:51.565440
MEAN_MOTION    = 15.49326055
ECCENTRICITY   = .00015854
INCLINATION    = 53.1590
RA_OF_ASC_NODE = 196.3744
ARG_OF_PERICENTER = 71.9563
MEAN_ANOMALY   = 288.1619

EPHEMERIS_TYPE = 0
CLASSIFICATION_TYPE = U
NORAD_CAT_ID   = 65875
ELEMENT_SET_NO = 999
REV_AT_EPOCH   = 374
BSTAR          = .11967544E-2
MEAN_MOTION_DOT = .66722E-3
MEAN_MOTION_DDOT = 0

CCSDS_OMM_VERS = 2.0
CREATION_DATE  = 
ORIGINATOR     = 

OBJECT_NAME    = STARLINK-34438
OBJECT_ID      = 2025-223Y
CENTER_NAME    = EARTH
REF_FRAME      = TEME
TIME_SYSTEM    = UTC
MEAN_ELEMENT_THEORY = SGP/SGP4

EPOCH          = 2025-10-27T06:31:21.633024
MEAN_MOTION    = 15.49333484
ECCENTRICITY   = .00012816
INCLINATION    = 53.1592
RA_OF_ASC_NODE = 196.3724
ARG_OF_PERICENTER = 102.0670
MEAN_ANOMALY   = 258.0483

EPHEMERIS_TYPE = 0
CLASSIFICATION_TYPE = U
NORAD_CAT_ID   = 65876
ELEMENT_SET_NO = 999
REV_AT_EPOCH   = 374
BSTAR          = .11113364E-2
MEAN_MOTION_DOT = .61905E-3
MEAN_MOTION_DDOT = 0

