STARLINK-35475          
1 65865U 25223M   25300.27555918  .00072492  00000+0  12984-2 0  9995
2 65865  53.1592 196.3977 0001695  62.7176 297.4006 15.49329508  3747
STARLINK-35312          
1 65866U 25223N   25300.27520854  .00069013  00000+0  12354-2 0  9993
2 65866  53.1588 196.3957 0002498 128.3591 231.7643 15.49365973  3747
STARLINK-35456          
1 65867U 25223P   25300.27487168  .00072879  00000+0  13052-2 0  9994
2 65867  53.1588 196.3931 0001543  75.2007 284.9173 15.49330307  3743
STARLINK-35450          
1 65868U 25223Q   25300.25002315  .00070506  00000+0  17617-2 0  9996
2 65868  53.1583 196.5867 0001454  61.3990 123.5356 15.39526524  5017
STARLINK-35441          
1 65869U 25223R   25300.25002315  .00064015  00000+0  15982-2 0  9998
2 65869  53.1587 196.6362 0001124  86.8723  72.1627 15.39595898  5013
STARLINK-35433          
1 65870U 25223S   25300.25002315 -.02045508  00000+0 -46901-1 0  9994
2 65870  53.1583 196.5114 0001328  84.1587 137.7351 15.45671243  5018
STARLINK-35465          
1 65871U 25223T   25300.25002315 -.02385452  00000+0 -61240-1 0  9993
2 65871  53.1586 196.5387 0001323 104.6813 103.5315 15.42337270  5016
STARLINK-34108          
1 65872U 25223U   25300.20829859  .00066546  00000+0  11928-2 0  9994
2 65872  53.1592 196.6877 0001147  98.4442 261.6697 15.49347116  3734
STARLINK-35423          
1 65873U 25223V   25300.20795669  .00052213  00000+0  93971-3 0  9991
2 65873  53.1594 196.6849 0001173  88.2173 271.8971 15.49335060  3736
STARLINK-35425          
1 65874U 25223W   25300.20869948 -.00155754  00000+0 -28810-2 0  9999
2 65874  53.1593 196.6901 0003020  56.8492 303.2806 15.48979520  3734
STARLINK-34688          
1 65875U 25223X   25300.27212460  .00066722  00000+0  11968-2 0  9998
2 65875  53.1590 196.3744 0001585  71.9563 288.1619 15.49326055  3749
STARLINK-34438          
1 65876U 25223Y   25300.27177816  .00061905  00000+0  11113-2 0  9994
2 65876  53.1592 196.3724 0001281 102.0670 258.0483 15.49333484  3747
